CCSDS_OMM_VERS = 2.0
CREATION_DATE  = 
ORIGINATOR     = 

OBJECT_NAME    = SL-16 R/B
OBJECT_ID      = 1993-016B
CENTER_NAME    = EARTH
REF_FRAME      = TEME
TIME_SYSTEM    = UTC
MEAN_ELEMENT_THEORY = SGP/SGP4

EPOCH          = 2026-02-16T00:16:17.713632
MEAN_MOTION    = 14.15301203
ECCENTRICITY   = .0010564
INCLINATION    = 71.0049
RA_OF_ASC_NODE = 260.7148
ARG_OF_PERICENTER = 343.7413
MEAN_ANOMALY   = 16.3370

EPHEMERIS_TYPE = 0
CLASSIFICATION_TYPE = U
NORAD_CAT_ID   = 22566
ELEMENT_SET_NO = 999
REV_AT_EPOCH   = 69910
BSTAR          = -.94298021E-4
MEAN_MOTION_DOT = -.231E-5
MEAN_MOTION_DDOT = 0

CCSDS_OMM_VERS = 2.0
CREATION_DATE  = 
ORIGINATOR     = 

OBJECT_NAME    = COSMOS 2242
OBJECT_ID      = 1993-024A
CENTER_NAME    = EARTH
REF_FRAME      = TEME
TIME_SYSTEM    = UTC
MEAN_ELEMENT_THEORY = SGP/SGP4

EPOCH          = 2026-02-16T04:08:25.079136
MEAN_MOTION    = 14.96459774
ECCENTRICITY   = .00170363
INCLINATION    = 82.5183
RA_OF_ASC_NODE = 287.2991
ARG_OF_PERICENTER = 22.8338
MEAN_ANOMALY   = 337.3638

EPHEMERIS_TYPE = 0
CLASSIFICATION_TYPE = U
NORAD_CAT_ID   = 22626
ELEMENT_SET_NO = 999
REV_AT_EPOCH   = 77717
BSTAR          = .16031063E-3
MEAN_MOTION_DOT = .185E-4
MEAN_MOTION_DDOT = 0

CCSDS_OMM_VERS = 2.0
CREATION_DATE  = 
ORIGINATOR     = 

OBJECT_NAME    = SL-16 R/B
OBJECT_ID      = 1993-059B
CENTER_NAME    = EARTH
REF_FRAME      = TEME
TIME_SYSTEM    = UTC
MEAN_ELEMENT_THEORY = SGP/SGP4

EPOCH          = 2026-02-16T10:38:53.304000
MEAN_MOTION    = 14.17227724
ECCENTRICITY   = .0019352
INCLINATION    = 70.9890
RA_OF_ASC_NODE = 55.9304
ARG_OF_PERICENTER = 245.9009
MEAN_ANOMALY   = 114.0090

EPHEMERIS_TYPE = 0
CLASSIFICATION_TYPE = U
NORAD_CAT_ID   = 22803
ELEMENT_SET_NO = 999
REV_AT_EPOCH   = 67652
BSTAR          = -.5275E-4
MEAN_MOTION_DOT = -.155E-5
MEAN_MOTION_DDOT = 0

CCSDS_OMM_VERS = 2.0
CREATION_DATE  = 
ORIGINATOR     = 

OBJECT_NAME    = ARIANE 40 R/B
OBJECT_ID      = 1993-061H
CENTER_NAME    = EARTH
REF_FRAME      = TEME
TIME_SYSTEM    = UTC
MEAN_ELEMENT_THEORY = SGP/SGP4

EPOCH          = 2026-02-16T04:34:36.481728
MEAN_MOTION    = 14.32849267
ECCENTRICITY   = .00103348
INCLINATION    = 98.4963
RA_OF_ASC_NODE = 116.4976
ARG_OF_PERICENTER = 354.2396
MEAN_ANOMALY   = 5.8668

EPHEMERIS_TYPE = 0
CLASSIFICATION_TYPE = U
NORAD_CAT_ID   = 22830
ELEMENT_SET_NO = 999
REV_AT_EPOCH   = 69102
BSTAR          = .93746787E-4
MEAN_MOTION_DOT = .213E-5
MEAN_MOTION_DDOT = 0

CCSDS_OMM_VERS = 2.0
CREATION_DATE  = 
ORIGINATOR     = 

OBJECT_NAME    = COSMOS 2278
OBJECT_ID      = 1994-023A
CENTER_NAME    = EARTH
REF_FRAME      = TEME
TIME_SYSTEM    = UTC
MEAN_ELEMENT_THEORY = SGP/SGP4

EPOCH          = 2026-02-16T10:49:47.855712
MEAN_MOTION    = 14.14364315
ECCENTRICITY   = .0006988
INCLINATION    = 71.0505
RA_OF_ASC_NODE = 219.5303
ARG_OF_PERICENTER = 54.8602
MEAN_ANOMALY   = 305.3175

EPHEMERIS_TYPE = 0
CLASSIFICATION_TYPE = U
NORAD_CAT_ID   = 23087
ELEMENT_SET_NO = 999
REV_AT_EPOCH   = 64180
BSTAR          = .94734E-4
MEAN_MOTION_DOT = .134E-5
MEAN_MOTION_DDOT = 0

CCSDS_OMM_VERS = 2.0
CREATION_DATE  = 
ORIGINATOR     = 

OBJECT_NAME    = SL-16 R/B
OBJECT_ID      = 1994-023B
CENTER_NAME    = EARTH
REF_FRAME      = TEME
TIME_SYSTEM    = UTC
MEAN_ELEMENT_THEORY = SGP/SGP4

EPOCH          = 2026-02-16T12:10:35.333760
MEAN_MOTION    = 14.15007293
ECCENTRICITY   = .000473
INCLINATION    = 70.9993
RA_OF_ASC_NODE = 115.3754
ARG_OF_PERICENTER = 305.7847
MEAN_ANOMALY   = 54.2836

EPHEMERIS_TYPE = 0
CLASSIFICATION_TYPE = U
NORAD_CAT_ID   = 23088
ELEMENT_SET_NO = 999
REV_AT_EPOCH   = 64309
BSTAR          = .20586E-3
MEAN_MOTION_DOT = .351E-5
MEAN_MOTION_DDOT = 0

CCSDS_OMM_VERS = 2.0
CREATION_DATE  = 
ORIGINATOR     = 

OBJECT_NAME    = SL-16 R/B
OBJECT_ID      = 1994-074B
CENTER_NAME    = EARTH
REF_FRAME      = TEME
TIME_SYSTEM    = UTC
MEAN_ELEMENT_THEORY = SGP/SGP4

EPOCH          = 2026-02-16T01:57:09.088416
MEAN_MOTION    = 14.79381780
ECCENTRICITY   = .00052405
INCLINATION    = 97.7138
RA_OF_ASC_NODE = 78.7712
ARG_OF_PERICENTER = 298.0492
MEAN_ANOMALY   = 119.3302

EPHEMERIS_TYPE = 0
CLASSIFICATION_TYPE = U
NORAD_CAT_ID   = 23343
ELEMENT_SET_NO = 999
REV_AT_EPOCH   = 68405
BSTAR          = .78756349E-4
MEAN_MOTION_DOT = .538E-5
MEAN_MOTION_DDOT = 0

CCSDS_OMM_VERS = 2.0
CREATION_DATE  = 
ORIGINATOR     = 

OBJECT_NAME    = SL-16 R/B
OBJECT_ID      = 1994-077B
CENTER_NAME    = EARTH
REF_FRAME      = TEME
TIME_SYSTEM    = UTC
MEAN_ELEMENT_THEORY = SGP/SGP4

EPOCH          = 2026-02-16T10:14:14.815968
MEAN_MOTION    = 14.15561943
ECCENTRICITY   = .0003969
INCLINATION    = 70.9828
RA_OF_ASC_NODE = 37.2209
ARG_OF_PERICENTER = 231.6063
MEAN_ANOMALY   = 128.4704

EPHEMERIS_TYPE = 0
CLASSIFICATION_TYPE = U
NORAD_CAT_ID   = 23405
ELEMENT_SET_NO = 999
REV_AT_EPOCH   = 61322
BSTAR          = .17161E-3
MEAN_MOTION_DOT = .288E-5
MEAN_MOTION_DDOT = 0

CCSDS_OMM_VERS = 2.0
CREATION_DATE  = 
ORIGINATOR     = 

OBJECT_NAME    = ARIANE 40+ R/B
OBJECT_ID      = 1995-021B
CENTER_NAME    = EARTH
REF_FRAME      = TEME
TIME_SYSTEM    = UTC
MEAN_ELEMENT_THEORY = SGP/SGP4

EPOCH          = 2026-02-16T04:40:06.413952
MEAN_MOTION    = 14.39756347
ECCENTRICITY   = .00065273
INCLINATION    = 98.4544
RA_OF_ASC_NODE = 118.9636
ARG_OF_PERICENTER = 196.5570
MEAN_ANOMALY   = 177.7710

EPHEMERIS_TYPE = 0
CLASSIFICATION_TYPE = U
NORAD_CAT_ID   = 23561
ELEMENT_SET_NO = 999
REV_AT_EPOCH   = 61615
BSTAR          = .11774571E-3
MEAN_MOTION_DOT = .325E-5
MEAN_MOTION_DDOT = 0

CCSDS_OMM_VERS = 2.0
CREATION_DATE  = 
ORIGINATOR     = 

OBJECT_NAME    = SL-16 R/B
OBJECT_ID      = 1995-058B
CENTER_NAME    = EARTH
REF_FRAME      = TEME
TIME_SYSTEM    = UTC
MEAN_ELEMENT_THEORY = SGP/SGP4

EPOCH          = 2026-02-16T12:04:32.739744
MEAN_MOTION    = 14.15495929
ECCENTRICITY   = .0011654
INCLINATION    = 71.0197
RA_OF_ASC_NODE = 224.7341
ARG_OF_PERICENTER = 161.8605
MEAN_ANOMALY   = 198.2936

EPHEMERIS_TYPE = 0
CLASSIFICATION_TYPE = U
NORAD_CAT_ID   = 23705
ELEMENT_SET_NO = 999
REV_AT_EPOCH   = 56485
BSTAR          = .14558E-4
MEAN_MOTION_DOT = -.19E-6
MEAN_MOTION_DDOT = 0

CCSDS_OMM_VERS = 2.0
CREATION_DATE  = 
ORIGINATOR     = 

OBJECT_NAME    = SL-16 R/B
OBJECT_ID      = 1996-051B
CENTER_NAME    = EARTH
REF_FRAME      = TEME
TIME_SYSTEM    = UTC
MEAN_ELEMENT_THEORY = SGP/SGP4

EPOCH          = 2026-02-16T11:52:18.272352
MEAN_MOTION    = 14.12409672
ECCENTRICITY   = .0016919
INCLINATION    = 70.7570
RA_OF_ASC_NODE = 220.0995
ARG_OF_PERICENTER = 178.1370
MEAN_ANOMALY   = 181.9816

EPHEMERIS_TYPE = 0
CLASSIFICATION_TYPE = U
NORAD_CAT_ID   = 24298
ELEMENT_SET_NO = 999
REV_AT_EPOCH   = 51865
BSTAR          = .76836E-4
MEAN_MOTION_DOT = .93E-6
MEAN_MOTION_DDOT = 0

CCSDS_OMM_VERS = 2.0
CREATION_DATE  = 
ORIGINATOR     = 

OBJECT_NAME    = ORBVIEW 2 (SEASTAR)
OBJECT_ID      = 1997-037A
CENTER_NAME    = EARTH
REF_FRAME      = TEME
TIME_SYSTEM    = UTC
MEAN_ELEMENT_THEORY = SGP/SGP4

EPOCH          = 2026-02-16T10:29:54.576672
MEAN_MOTION    = 14.35478248
ECCENTRICITY   = .0003192
INCLINATION    = 98.8529
RA_OF_ASC_NODE = 211.1907
ARG_OF_PERICENTER = 114.9182
MEAN_ANOMALY   = 245.2334

EPHEMERIS_TYPE = 0
CLASSIFICATION_TYPE = U
NORAD_CAT_ID   = 24883
ELEMENT_SET_NO = 999
REV_AT_EPOCH   = 50542
BSTAR          = .12888E-3
MEAN_MOTION_DOT = .324E-5
MEAN_MOTION_DDOT = 0

