SL-16 R/B               
1 22566U 93016B   26047.01131613 -.00000231  00000+0 -94298-4 0  9998
2 22566  71.0049 260.7148 0010564 343.7413  16.3370 14.15301203699108
COSMOS 2242             
1 22626U 93024A   26047.17251249  .00001850  00000+0  16031-3 0  9993
2 22626  82.5183 287.2991 0017036  22.8338 337.3638 14.96459774777176
SL-16 R/B               
1 22803U 93059B   26047.44367250 -.00000155  00000+0 -52750-4 0  9996
2 22803  70.9890  55.9304 0019352 245.9009 114.0090 14.17227724676523
ARIANE 40 R/B           
1 22830U 93061H   26047.19070002  .00000213  00000+0  93747-4 0  9991
2 22830  98.4963 116.4976 0010334 354.2396   5.8668 14.32849267691020
COSMOS 2278             
1 23087U 94023A   26047.45124833  .00000134  00000+0  94734-4 0  9995
2 23087  71.0505 219.5303 0006988  54.8602 305.3175 14.14364315641804
SL-16 R/B               
1 23088U 94023B   26047.50735340  .00000351  00000+0  20586-3 0  9997
2 23088  70.9993 115.3754 0004730 305.7847  54.2836 14.15007293643096
SL-16 R/B               
1 23343U 94074B   26047.08135519  .00000538  00000+0  78756-4 0  9992
2 23343  97.7138  78.7712 0005240 298.0492 119.3302 14.79381780684059
SL-16 R/B               
1 23405U 94077B   26047.42656037  .00000288  00000+0  17161-3 0  9999
2 23405  70.9828  37.2209 0003969 231.6063 128.4704 14.15561943613220
ARIANE 40+ R/B          
1 23561U 95021B   26047.19451868  .00000325  00000+0  11775-3 0  9998
2 23561  98.4544 118.9636 0006527 196.5570 177.7710 14.39756347616158
SL-16 R/B               
1 23705U 95058B   26047.50315671 -.00000019  00000+0  14558-4 0  9998
2 23705  71.0197 224.7341 0011654 161.8605 198.2936 14.15495929564856
SL-16 R/B               
1 24298U 96051B   26047.49465593  .00000093  00000+0  76836-4 0  9995
2 24298  70.7570 220.0995 0016919 178.1370 181.9816 14.12409672518658
ORBVIEW 2 (SEASTAR)     
1 24883U 97037A   26047.43743723  .00000324  00000+0  12888-3 0  9991
2 24883  98.8529 211.1907 0003192 114.9182 245.2334 14.35478248505425
